start=new Date('2021-11-26T00:00:00.000Z').valueOf();
sats=[{"FILE":"3224126","BSTAR":"0.00016193000000","ARG_OF_PERICENTER":"59.8938","ECCENTRICITY":"0.00018380","REF_FRAME":"TEME","OBJECT_NAME":"STARLINK-1213","TLE_LINE1":"1 45400U 20019AS  21329.70764607  .00002131  00000-0  16193-3 0  9999","MEAN_MOTION_DDOT":"0.0000000000000","RCS_SIZE":"LARGE","RA_OF_ASC_NODE":"322.1072","ELEMENT_SET_NO":"999","TLE_LINE2":"2 45400  53.0557 322.1072 0001838  59.8938 300.2233 15.06402887 94006","DECAY_DATE":null,"REV_AT_EPOCH":"9400","MEAN_MOTION_DOT":"0.00002131","APOAPSIS":"548.478","SEMIMAJOR_AXIS":"6925.340","SITE":"AFETR","EPHEMERIS_TYPE":"0","COUNTRY_CODE":"US","PERIAPSIS":"545.932","NORAD_CAT_ID":"45400","TIME_SYSTEM":"UTC","MEAN_ELEMENT_THEORY":"SGP4","LAUNCH_DATE":"2020-03-18","EPOCH":"2021-11-25T16:59:00.620448","CLASSIFICATION_TYPE":"U","INCLINATION":"53.0557","GP_ID":"190491934","PERIOD":"95.592","OBJECT_ID":"2020-019AS","OBJECT_TYPE":"PAYLOAD","MEAN_ANOMALY":"300.2233","MEAN_MOTION":"15.06402887","CENTER_NAME":"EARTH"},{"SITE":"AFETR","SEMIMAJOR_AXIS":"6925.389","APOAPSIS":"548.490","PERIAPSIS":"546.017","COUNTRY_CODE":"US","EPHEMERIS_TYPE":"0","GP_ID":"190492185","PERIOD":"95.593","INCLINATION":"53.0549","CLASSIFICATION_TYPE":"U","EPOCH":"2021-11-25T16:53:43.371744","MEAN_ELEMENT_THEORY":"SGP4","LAUNCH_DATE":"2020-03-18","TIME_SYSTEM":"UTC","NORAD_CAT_ID":"45401","CENTER_NAME":"EARTH","MEAN_MOTION":"15.06386953","MEAN_ANOMALY":"302.0133","OBJECT_ID":"2020-019AT","OBJECT_TYPE":"PAYLOAD","ARG_OF_PERICENTER":"58.1029","BSTAR":"-0.00002338200000","FILE":"3224126","OBJECT_NAME":"STARLINK-1256","REF_FRAME":"TEME","ECCENTRICITY":"0.00017850","TLE_LINE2":"2 45401  53.0549 322.1168 0001785  58.1029 302.0133 15.06386953 94079","RCS_SIZE":"LARGE","ELEMENT_SET_NO":"999","RA_OF_ASC_NODE":"322.1168","MEAN_MOTION_DDOT":"0.0000000000000","TLE_LINE1":"1 45401U 20019AT  21329.70397421 -.00000630  00000-0 -23382-4 0  9999","MEAN_MOTION_DOT":"-0.00000630","REV_AT_EPOCH":"9407","DECAY_DATE":null},{"OBJECT_ID":"2020-019AU","OBJECT_TYPE":"PAYLOAD","MEAN_MOTION":"15.06398823","MEAN_ANOMALY":"303.4035","CENTER_NAME":"EARTH","TIME_SYSTEM":"UTC","NORAD_CAT_ID":"45402","EPOCH":"2021-11-25T16:48:24.432192","LAUNCH_DATE":"2020-03-18","MEAN_ELEMENT_THEORY":"SGP4","CLASSIFICATION_TYPE":"U","GP_ID":"190490933","PERIOD":"95.592","INCLINATION":"53.0552","EPHEMERIS_TYPE":"0","COUNTRY_CODE":"US","PERIAPSIS":"545.998","SITE":"AFETR","SEMIMAJOR_AXIS":"6925.352","APOAPSIS":"548.436","DECAY_DATE":null,"REV_AT_EPOCH":"9408","MEAN_MOTION_DOT":"0.00000036","TLE_LINE1":"1 45402U 20019AU  21329.70028278  .00000036  00000-0  21347-4 0  9998","MEAN_MOTION_DDOT":"0.0000000000000","TLE_LINE2":"2 45402  53.0552 322.1274 0001760  56.7122 303.4035 15.06398823 94089","RA_OF_ASC_NODE":"322.1274","RCS_SIZE":"LARGE","ELEMENT_SET_NO":"999","ECCENTRICITY":"0.00017600","REF_FRAME":"TEME","OBJECT_NAME":"STARLINK-1257","FILE":"3224126","BSTAR":"0.00002134700000","ARG_OF_PERICENTER":"56.7122"},{"MEAN_MOTION":"15.06398599","MEAN_ANOMALY":"291.7329","CENTER_NAME":"EARTH","OBJECT_ID":"2020-019AV","OBJECT_TYPE":"PAYLOAD","CLASSIFICATION_TYPE":"U","PERIOD":"95.592","GP_ID":"190491183","INCLINATION":"53.0557","TIME_SYSTEM":"UTC","NORAD_CAT_ID":"45403","EPOCH":"2021-11-25T17:09:37.948320","MEAN_ELEMENT_THEORY":"SGP4","LAUNCH_DATE":"2020-03-18","PERIAPSIS":"545.988","EPHEMERIS_TYPE":"0","COUNTRY_CODE":"US","SITE":"AFETR","SEMIMAJOR_AXIS":"6925.353","APOAPSIS":"548.448","REV_AT_EPOCH":"9407","MEAN_MOTION_DOT":"-0.00000190","DECAY_DATE":null,"MEAN_MOTION_DDOT":"0.0000000000000","TLE_LINE2":"2 45403  53.0557 322.0707 0001776  68.3849 291.7329 15.06398599 94071","RCS_SIZE":"LARGE","ELEMENT_SET_NO":"999","RA_OF_ASC_NODE":"322.0707","TLE_LINE1":"1 45403U 20019AV  21329.71502255 -.00000190  00000-0  61393-5 0  9990","REF_FRAME":"TEME","OBJECT_NAME":"STARLINK-1259","ECCENTRICITY":"0.00017760","ARG_OF_PERICENTER":"68.3849","FILE":"3224126","BSTAR":"0.00000613930000"},{"ARG_OF_PERICENTER":"62.1618","FILE":"3223911","BSTAR":"0.00011846000000","REF_FRAME":"TEME","OBJECT_NAME":"STARLINK-1260","ECCENTRICITY":"0.00014880","MEAN_MOTION_DDOT":"0.0000000000000","TLE_LINE2":"2 45404  53.0540 323.5003 0001488  62.1618 297.9521 15.06398215 93936","RA_OF_ASC_NODE":"323.5003","RCS_SIZE":"LARGE","ELEMENT_SET_NO":"999","TLE_LINE1":"1 45404U 20019AW  21329.39434228  .00001483  00000-0  11846-3 0  9990","REV_AT_EPOCH":"9393","MEAN_MOTION_DOT":"0.00001483","DECAY_DATE":null,"SEMIMAJOR_AXIS":"6925.354","SITE":"AFETR","APOAPSIS":"548.250","PERIAPSIS":"546.189","EPHEMERIS_TYPE":"0","COUNTRY_CODE":"US","CLASSIFICATION_TYPE":"U","PERIOD":"95.592","GP_ID":"190463447","INCLINATION":"53.0540","TIME_SYSTEM":"UTC","NORAD_CAT_ID":"45404","EPOCH":"2021-11-25T09:27:51.172992","LAUNCH_DATE":"2020-03-18","MEAN_ELEMENT_THEORY":"SGP4","MEAN_MOTION":"15.06398215","MEAN_ANOMALY":"297.9521","CENTER_NAME":"EARTH","OBJECT_TYPE":"PAYLOAD","OBJECT_ID":"2020-019AW"},{"DECAY_DATE":null,"MEAN_MOTION_DOT":"-0.00000513","REV_AT_EPOCH":"9398","TLE_LINE1":"1 45405U 20019AX  21329.71133922 -.00000513  00000-0 -15555-4 0  9991","MEAN_MOTION_DDOT":"0.0000000000000","RA_OF_ASC_NODE":"322.0904","RCS_SIZE":"LARGE","ELEMENT_SET_NO":"999","TLE_LINE2":"2 45405  53.0542 322.0904 0001968  59.9751 300.1433 15.06393738 93987","ECCENTRICITY":"0.00019680","REF_FRAME":"TEME","OBJECT_NAME":"STARLINK-1263","FILE":"3224126","BSTAR":"-0.00001555500000","ARG_OF_PERICENTER":"59.9751","OBJECT_ID":"2020-019AX","OBJECT_TYPE":"PAYLOAD","MEAN_ANOMALY":"300.1433","MEAN_MOTION":"15.06393738","CENTER_NAME":"EARTH","NORAD_CAT_ID":"45405","TIME_SYSTEM":"UTC","MEAN_ELEMENT_THEORY":"SGP4","LAUNCH_DATE":"2020-03-18","EPOCH":"2021-11-25T17:04:19.708608","CLASSIFICATION_TYPE":"U","INCLINATION":"53.0542","GP_ID":"190491687","PERIOD":"95.593","EPHEMERIS_TYPE":"0","COUNTRY_CODE":"US","PERIAPSIS":"545.870","APOAPSIS":"548.596","SITE":"AFETR","SEMIMAJOR_AXIS":"6925.368"},{"REV_AT_EPOCH":"9398","MEAN_MOTION_DOT":"0.00001641","DECAY_DATE":null,"MEAN_MOTION_DDOT":"0.0000000000000","TLE_LINE2":"2 45406  53.0549 322.0409 0001643  56.4533 303.6613 15.06403147 93989","ELEMENT_SET_NO":"999","RCS_SIZE":"LARGE","RA_OF_ASC_NODE":"322.0409","TLE_LINE1":"1 45406U 20019AY  21329.71869855  .00001641  00000-0  12902-3 0  9996","REF_FRAME":"TEME","OBJECT_NAME":"STARLINK-1265","ECCENTRICITY":"0.00016430","ARG_OF_PERICENTER":"56.4533","FILE":"3224126","BSTAR":"0.00012902000000","MEAN_MOTION":"15.06403147","MEAN_ANOMALY":"303.6613","CENTER_NAME":"EARTH","OBJECT_ID":"2020-019AY","OBJECT_TYPE":"PAYLOAD","CLASSIFICATION_TYPE":"U","GP_ID":"190490435","PERIOD":"95.592","INCLINATION":"53.0549","TIME_SYSTEM":"UTC","NORAD_CAT_ID":"45406","EPOCH":"2021-11-25T17:14:55.554720","LAUNCH_DATE":"2020-03-18","MEAN_ELEMENT_THEORY":"SGP4","PERIAPSIS":"546.066","EPHEMERIS_TYPE":"0","COUNTRY_CODE":"US","SEMIMAJOR_AXIS":"6925.339","SITE":"AFETR","APOAPSIS":"548.342"},{"SEMIMAJOR_AXIS":"6925.337","SITE":"AFETR","APOAPSIS":"548.513","PERIAPSIS":"545.891","EPHEMERIS_TYPE":"0","COUNTRY_CODE":"US","CLASSIFICATION_TYPE":"U","PERIOD":"95.592","GP_ID":"190462696","INCLINATION":"53.0554","TIME_SYSTEM":"UTC","NORAD_CAT_ID":"45407","EPOCH":"2021-11-25T09:37:05.930976","LAUNCH_DATE":"2020-03-18","MEAN_ELEMENT_THEORY":"SGP4","MEAN_MOTION":"15.06403834","MEAN_ANOMALY":"303.8163","CENTER_NAME":"EARTH","OBJECT_TYPE":"PAYLOAD","OBJECT_ID":"2020-019AZ","ARG_OF_PERICENTER":"56.3006","FILE":"3223911","BSTAR":"0.00007717200000","REF_FRAME":"TEME","OBJECT_NAME":"STARLINK-1275","ECCENTRICITY":"0.00018930","MEAN_MOTION_DDOT":"0.0000000000000","TLE_LINE2":"2 45407  53.0554 323.4679 0001893  56.3006 303.8163 15.06403834 93931","RCS_SIZE":"LARGE","ELEMENT_SET_NO":"999","RA_OF_ASC_NODE":"323.4679","TLE_LINE1":"1 45407U 20019AZ  21329.40076309  .00000868  00000-0  77172-4 0  9998","MEAN_MOTION_DOT":"0.00000868","REV_AT_EPOCH":"9393","DECAY_DATE":null},{"ECCENTRICITY":"0.00015350","OBJECT_NAME":"STARLINK-1278","REF_FRAME":"TEME","BSTAR":"0.00011190000000","FILE":"3223911","ARG_OF_PERICENTER":"54.5695","DECAY_DATE":null,"MEAN_MOTION_DOT":"0.00001386","REV_AT_EPOCH":"9353","TLE_LINE1":"1 45408U 20019BA  21329.48003372  .00001386  00000-0  11190-3 0  9990","ELEMENT_SET_NO":"999","RCS_SIZE":"LARGE","RA_OF_ASC_NODE":"353.1199","TLE_LINE2":"2 45408  53.0549 353.1199 0001535  54.5695 305.5437 15.06400044 93539","MEAN_MOTION_DDOT":"0.0000000000000","COUNTRY_CODE":"US","EPHEMERIS_TYPE":"0","PERIAPSIS":"546.150","APOAPSIS":"548.276","SEMIMAJOR_AXIS":"6925.348","SITE":"AFETR","OBJECT_TYPE":"PAYLOAD","OBJECT_ID":"2020-019BA","CENTER_NAME":"EARTH","MEAN_ANOMALY":"305.5437","MEAN_MOTION":"15.06400044","MEAN_ELEMENT_THEORY":"SGP4","LAUNCH_DATE":"2020-03-18","EPOCH":"2021-11-25T11:31:14.913408","NORAD_CAT_ID":"45408","TIME_SYSTEM":"UTC","INCLINATION":"53.0549","GP_ID":"190463947","PERIOD":"95.592","CLASSIFICATION_TYPE":"U"},{"SITE":"AFETR","SEMIMAJOR_AXIS":"6925.376","APOAPSIS":"548.362","COUNTRY_CODE":"US","EPHEMERIS_TYPE":"0","PERIAPSIS":"546.121","EPOCH":"2021-11-25T16:11:14.684928","MEAN_ELEMENT_THEORY":"SGP4","LAUNCH_DATE":"2020-03-18","TIME_SYSTEM":"UTC","NORAD_CAT_ID":"45409","PERIOD":"95.593","GP_ID":"190492186","INCLINATION":"53.0530","CLASSIFICATION_TYPE":"U","OBJECT_TYPE":"PAYLOAD","OBJECT_ID":"2020-019BB","CENTER_NAME":"EARTH","MEAN_MOTION":"15.06391003","MEAN_ANOMALY":"300.6747","BSTAR":"-0.00000948930000","FILE":"3224126","ARG_OF_PERICENTER":"59.4402","ECCENTRICITY":"0.00016180","OBJECT_NAME":"STARLINK-1282","REF_FRAME":"TEME","TLE_LINE1":"1 45409U 20019BB  21329.67447552 -.00000423  00000-0 -94893-5 0  9990","TLE_LINE2":"2 45409  53.0530 322.2533 0001618  59.4402 300.6747 15.06391003 93984","RA_OF_ASC_NODE":"322.2533","RCS_SIZE":"LARGE","ELEMENT_SET_NO":"999","MEAN_MOTION_DDOT":"0.0000000000000","DECAY_DATE":null,"MEAN_MOTION_DOT":"-0.00000423","REV_AT_EPOCH":"9398"}];
